STARLINK-2480           
1 48137U 21027AX  24158.24599433  .00003575  00000+0  25868-3 0  9995
2 48137  53.0529 151.1366 0001238  89.9977 270.1154 15.06410833175616
STARLINK-2481           
1 48138U 21027AY  24158.20730107  .00001541  00000+0  12234-3 0  9991
2 48138  53.0541 171.3433 0001257  94.3571 265.7562 15.06401860175333
STARLINK-2482           
1 48139U 21027AZ  24158.19807584  .00001445  00000+0  11585-3 0  9995
2 48139  53.0544 151.3804 0001193  91.3655 268.7471 15.06410657175613
STARLINK-2483           
1 48140U 21027BA  24158.21842076  .00001317  00000+0  10726-3 0  9999
2 48140  53.0532 171.8415 0001310  86.6416 273.4723 15.06410847175322
STARLINK-2484           
1 48141U 21027BB  24158.18886273  .00001857  00000+0  14346-3 0  9994
2 48141  53.0539 171.4226 0001316  90.1742 269.9397 15.06410394175339
STARLINK-2485           
1 48142U 21027BC  24158.19439093  .00002405  00000+0  18023-3 0  9996
2 48142  53.0541 151.3988 0001320  88.6086 271.5054 15.06411669175619
STARLINK-2486           
1 48143U 21027BD  24158.11930499  .00000622  00000+0  60627-4 0  9992
2 48143  53.0554 106.8326 0001445  86.6671 273.4484 15.06406277176226
STARLINK-2487           
1 48144U 21027BE  24158.20176945  .00004078  00000+0  29234-3 0  9998
2 48144  53.0534 151.3638 0001429  94.1288 265.9864 15.06421272175618
STARLINK-2488           
1 48145U 21027BF  24158.27180423  .00003332  00000+0  24238-3 0  9993
2 48145  53.0529 151.0505 0001324  89.4576 270.6564 15.06413235175625
STARLINK-2489           
1 48146U 21027BG  24158.41646527  .02486730  55322-2  43096-2 0  9993
2 48146  53.0393 136.9749 0003619  79.0087 281.1350 16.03014728175833
STARLINK-2490           
1 48147U 21027BH  24158.20809149  .00004389  00000+0  41048-4 0  9993
2 48147  53.0533 142.2050 0001380 113.8180 246.2981 15.69722736175747
STARLINK-2491           
1 48148U 21027BJ  24158.30313210  .00001676  00000+0  13135-3 0  9995
2 48148  53.0540 170.9078 0001278  89.4307 270.6828 15.06413372175340
STARLINK-2492           
1 48149U 21027BK  24158.24968432  .00000078  00000+0  24138-4 0  9992
2 48149  53.0539 151.1486 0001345  85.2203 274.8939 15.06404694175613
STARLINK-2493           
1 48150U 21027BL  24158.25336696  .00001828  00000+0  14154-3 0  9996
2 48150  53.0542 151.1315 0001361  94.6379 265.4765 15.06409607175629
STARLINK-2503           
1 48151U 21027BM  24158.19070997  .00001484  00000+0  11846-3 0  9992
2 48151  53.0538 151.4137 0001328  94.7339 265.3802 15.06406841175617
STARLINK-2567           
1 48276U 21036A   24157.96633405  .00020511  00000+0  13910-2 0  9998
2 48276  53.0550  47.4227 0001065  79.9376 280.1733 15.06423709172669
STARLINK-2569           
1 48277U 21036B   24157.90136784  .00005233  00000+0  36978-3 0  9995
2 48277  53.0555  12.7150 0000942  85.9629 274.1468 15.06412074173141
STARLINK-2543           
1 48278U 21036C   24158.33677065  .00014633  00000+0  99833-3 0  9999
2 48278  53.0435  25.8368 0000613 349.7733  10.3243 15.06431871172996
STARLINK-2580           
1 48279U 21036D   24157.93131834  .00012168  00000+0  83368-3 0  9991
2 48279  53.0550  27.5812 0001186  85.6128 274.4996 15.06429757172930
STARLINK-2565           
1 48280U 21036E   24157.85851441  .00000540  00000+0  55138-4 0  9993
2 48280  53.0555  97.9053 0001345  97.7224 262.3918 15.06411414171944
STARLINK-2520           
1 48281U 21036F   24158.46852859  .00000550  00000+0  55806-4 0  9999
2 48281  53.0539  75.1667 0001358  83.0740 277.0403 15.06411888172310
STARLINK-2558           
1 48282U 21036G   24158.49203773  .00001029  00000+0  87949-4 0  9993
2 48282  53.0533  80.0635 0001194  85.7472 274.3653 15.06402142172257
STARLINK-2516           
1 48283U 21036H   24158.48834972  .00008109  00000+0  56246-3 0  9995
2 48283  53.0540  80.0774 0001593  85.2470 274.8701 15.06411681172253
STARLINK-2564           
1 48284U 21036J   24158.48465180  .00001501  00000+0  11963-3 0  9993
2 48284  53.0537  80.0930 0001208  77.3420 282.7704 15.06411921172241
STARLINK-2547           
1 48286U 21036L   24158.50312734  .00003812  00000+0  27456-3 0  9995
2 48286  53.0549  80.2790 0001476  78.1166 281.9988 15.06410337172240
STARLINK-2566           
1 48287U 21036M   24157.81013598  .00008920  00000+0  61672-3 0  9998
2 48287  53.0576  83.1210 0001828 106.8543 253.2646 15.06416519172149
STARLINK-2562           
1 48288U 21036N   24158.47729129  .00000591  00000+0  58546-4 0  9999
2 48288  53.0557  80.2038 0001453  90.5002 269.6154 15.06412627172240
STARLINK-2545           
1 48289U 21036P   24158.06814320  .00005102  00000+0  36094-3 0  9999
2 48289  53.0536  81.9665 0001390  98.1281 261.9866 15.06426200172185
STARLINK-2540           
1 48290U 21036Q   24158.06445642  .00002314  00000+0  17410-3 0  9991
2 48290  53.0548  81.9815 0001706  90.1848 269.9336 15.06424170172183
STARLINK-2555           
1 48291U 21036R   24158.06078291  .00007591  00000+0  52766-3 0  9999
2 48291  53.0551  81.9987 0001468  88.4742 271.6415 15.06418884172189
STARLINK-2542           
1 48292U 21036S   24158.07184340  .00003367  00000+0  24468-3 0  9999
2 48292  53.0556  82.1136 0001344  93.6748 266.4395 15.06419856172180
STARLINK-2550           
1 48293U 21036T   24157.52263810  .00000986  00000+0  85075-4 0  9995
2 48293  53.0557  84.4179 0001755  93.7455 266.3734 15.06397782171522
STARLINK-2533           
1 48294U 21036U   24158.51414417  .00001262  00000+0  10357-3 0  9995
2 48294  53.0547  79.9611 0001239 100.6828 259.4301 15.06410296172251
STARLINK-2535           
1 48295U 21036V   24158.51046514  .00001605  00000+0  12662-3 0  9997
2 48295  53.0561  79.9805 0001606  84.3897 275.7275 15.06400073172258
STARLINK-2546           
1 48296U 21036W   24158.50677356 -.00001346  00000+0 -71524-4 0  9998
2 48296  53.0551  79.9959 0001363  86.7434 273.3710 15.06395064172252
STARLINK-2559           
1 48298U 21036Y   24158.49941272 -.00000446  00000+0 -11029-4 0  9993
2 48298  53.0543  80.0285 0001820  85.4962 274.6235 15.06403405172255
STARLINK-2557           
1 48299U 21036Z   24158.49571841  .00000775  00000+0  70946-4 0  9991
2 48299  53.0534  80.0437 0001945  77.7676 282.3530 15.06407069172253
STARLINK-2538           
1 48300U 21036AA  24158.08933761  .00002386  00000+0  17897-3 0  9997
2 48300  53.0546  91.8701 0001392  89.2999 270.8150 15.06415819172055
STARLINK-2537           
1 48301U 21036AB  24158.08565560  .00001893  00000+0  14592-3 0  9997
2 48301  53.0550  91.8874 0001393  85.3171 274.7977 15.06414956172042
STARLINK-2556           
1 48302U 21036AC  24158.08197046  .00002114  00000+0  16074-3 0  9992
2 48302  53.0553  91.9055 0001488  86.8268 273.2892 15.06413016172042
STARLINK-2530           
1 48303U 21036AD  24158.08438396  .00001390  00000+0  11454-3 0  9991
2 48303  53.0556  91.9569 0001428  93.7269 266.3883 15.05594116172052
STARLINK-2524           
1 48304U 21036AE  24157.54382692  .00003287  00000+0  23949-3 0  9998
2 48304  53.0536  94.3192 0001267  92.6241 267.4893 15.06393499171974
STARLINK-2519           
1 48305U 21036AF  24158.52435117  .00002114  00000+0  16073-3 0  9997
2 48305  53.0546  90.4941 0001745  79.7608 280.3578 15.06412669172111
STARLINK-2523           
1 48306U 21036AG  24158.53166271 -.00002662  00000+0 -15982-3 0  9999
2 48306  53.0571  89.8823 0001528  79.6994 280.4167 15.06410652172123
STARLINK-2528           
1 48307U 21036AH  24158.58334491  .01087970  00000+0  18833-1 0  9996
2 48307  53.0554  86.9842 0001045 105.9294 121.1975 15.47928482172166
STARLINK-2517           
1 48309U 21036AK  24158.52059335  .00002766  00000+0  20446-3 0  9997
2 48309  53.0521  89.9321 0001346  78.6049 281.5091 15.06412952172126
STARLINK-2536           
1 48310U 21036AL  24158.51690302  .00001115  00000+0  93701-4 0  9995
2 48310  53.0541  89.9491 0001150  79.8687 280.2431 15.06414560172123
STARLINK-2534           
1 48311U 21036AM  24158.51321924  .00001024  00000+0  87609-4 0  9996
2 48311  53.0551  89.9662 0001430  87.5910 272.5242 15.06413575172175
STARLINK-2061           
1 48312U 21036AN  24157.84607411  .00000250  00000+0  35648-4 0  9996
2 48312  53.0561  92.9614 0001528  98.2131 261.9032 15.06410223172075
STARLINK-2541           
1 48313U 21036AP  24158.50585007  .00000048  00000+0  22119-4 0  9991
2 48313  53.0556  90.0055 0001553  89.7425 270.3742 15.06407938172179
STARLINK-2549           
1 48314U 21036AQ  24158.50216361 -.00000042  00000+0  16065-4 0  9994
2 48314  53.0563  90.0155 0001536  82.7446 277.3718 15.06412093172174
STARLINK-2506           
1 48315U 21036AR  24157.83502027  .00004247  00000+0  30370-3 0  9991
2 48315  53.0546  93.0105 0001592  93.5199 266.5972 15.06415210172076
STARLINK-2507           
1 48316U 21036AS  24158.09670474  .00002445  00000+0  18291-3 0  9999
2 48316  53.0560  91.8368 0001625  93.9767 266.1408 15.06419781172114
STARLINK-2513           
1 48317U 21036AT  24158.09302476  .00002327  00000+0  17503-3 0  9998
2 48317  53.0561  91.8530 0001328  89.7512 270.3629 15.06413646172114
STARLINK-2509           
1 48318U 21036AU  24158.15107849  .00002723  00000+0  20156-3 0  9991
2 48318  53.0542 101.5941 0001488  99.2738 260.8420 15.06414615171975
STARLINK-2512           
1 48319U 21036AV  24157.81472775  .00001063  00000+0  90247-4 0  9992
2 48319  53.0543 103.0923 0001387  92.3556 267.7592 15.06404437171926
STARLINK-2029           
1 48320U 21036AW  24158.54178117  .00002539  00000+0  18923-3 0  9997
2 48320  53.0555  99.8380 0001856  78.2357 281.8841 15.06417061172037
STARLINK-2457           
1 48321U 21036AX  24158.53810308  .00002159  00000+0  16373-3 0  9997
2 48321  53.0550  99.8542 0001114  84.3529 275.7587 15.06411677171988
STARLINK-2477           
1 48322U 21036AY  24158.13633279  .00001894  00000+0  14592-3 0  9990
2 48322  53.0562 101.6584 0001556  92.9509 267.1658 15.06416054171925
